{
  "type": "FeatureCollection",
  "features": [
    {
      "type": "Feature",
      "properties": {
        "norad_id": 31979,
        "name": "FENGYUN 1C DEB",
        "group": "fengyun-1c-debris",
        "lat": 4.901828693854449,
        "lon": 68.42838528591068,
        "alt_km": 895.0428886500349,
        "timestamp": "2025-12-02T08:59:32.999442+00:00",
        "meta_object_name": "FENGYUN 1C DEB",
        "meta_object_id": "1999-025CPG",
        "meta_epoch": "2025-11-30T13:07:29.414208",
        "meta_mean_motion": 13.69171874,
        "meta_eccentricity": 0.0264371,
        "meta_inclination": 99.3774,
        "meta_ra_of_asc_node": 67.4602,
        "meta_arg_of_pericenter": 312.7401,
        "meta_mean_anomaly": 45.1765,
        "meta_ephemeris_type": 0,
        "meta_classification_type": "U",
        "meta_norad_cat_id": 31979,
        "meta_element_set_no": 999,
        "meta_rev_at_epoch": 57745,
        "meta_bstar": 0.0029283,
        "meta_mean_motion_dot": 3.196e-05,
        "meta_mean_motion_ddot": 0,
        "tle_line1": "1 31979U 99025CPG 25334.54686822  .00003196  00000+0  29283-2 0  9996",
        "tle_line2": "2 31979  99.3774  67.4602 0264371 312.7401  45.1765 13.69171874577459"
      },
      "geometry": {
        "type": "Point",
        "coordinates": [
          68.42838528591068,
          4.901828693854449
        ]
      }
    },
    {
      "type": "Feature",
      "properties": {
        "norad_id": 31980,
        "name": "FENGYUN 1C DEB",
        "group": "fengyun-1c-debris",
        "lat": -15.099622406138772,
        "lon": 66.37981444861673,
        "alt_km": 1431.7597658502727,
        "timestamp": "2025-12-02T08:59:32.999452+00:00",
        "meta_object_name": "FENGYUN 1C DEB",
        "meta_object_id": "1999-025CPH",
        "meta_epoch": "2025-11-07T01:33:48.122784",
        "meta_mean_motion": 13.32082371,
        "meta_eccentricity": 0.04288031,
        "meta_inclination": 97.6138,
        "meta_ra_of_asc_node": 45.4675,
        "meta_arg_of_pericenter": 204.355,
        "meta_mean_anomaly": 153.6774,
        "meta_ephemeris_type": 0,
        "meta_classification_type": "U",
        "meta_norad_cat_id": 31980,
        "meta_element_set_no": 999,
        "meta_rev_at_epoch": 89195,
        "meta_bstar": 0.0011351544,
        "meta_mean_motion_dot": 8.87e-06,
        "meta_mean_motion_ddot": 0,
        "tle_line1": "1 31980U 99025CPH 25311.06514031  .00000887  00000+0  11352-2 0  9994",
        "tle_line2": "2 31980  97.6138  45.4675 0428803 204.3550 153.6774 13.32082371891957"
      },
      "geometry": {
        "type": "Point",
        "coordinates": [
          66.37981444861673,
          -15.099622406138772
        ]
      }
    },
    {
      "type": "Feature",
      "properties": {
        "norad_id": 31984,
        "name": "FENGYUN 1C DEB",
        "group": "fengyun-1c-debris",
        "lat": -14.596559879150885,
        "lon": 158.75668298760795,
        "alt_km": 799.6373324850883,
        "timestamp": "2025-12-02T08:59:32.999462+00:00",
        "meta_object_name": "FENGYUN 1C DEB",
        "meta_object_id": "1999-025CPM",
        "meta_epoch": "2025-11-29T17:37:56.068608",
        "meta_mean_motion": 14.22924901,
        "meta_eccentricity": 0.00624304,
        "meta_inclination": 98.5591,
        "meta_ra_of_asc_node": 338.4386,
        "meta_arg_of_pericenter": 265.5692,
        "meta_mean_anomaly": 93.8352,
        "meta_ephemeris_type": 0,
        "meta_classification_type": "U",
        "meta_norad_cat_id": 31984,
        "meta_element_set_no": 999,
        "meta_rev_at_epoch": 94188,
        "meta_bstar": 0.00039215159,
        "meta_mean_motion_dot": 8.56e-06,
        "meta_mean_motion_ddot": 0,
        "tle_line1": "1 31984U 99025CPM 25333.73467672  .00000856  00000+0  39215-3 0  9999",
        "tle_line2": "2 31984  98.5591 338.4386 0062430 265.5692  93.8352 14.22924901941883"
      },
      "geometry": {
        "type": "Point",
        "coordinates": [
          158.75668298760795,
          -14.596559879150885
        ]
      }
    },
    {
      "type": "Feature",
      "properties": {
        "norad_id": 31985,
        "name": "FENGYUN 1C DEB",
        "group": "fengyun-1c-debris",
        "lat": -28.78032810529876,
        "lon": -117.16946811366539,
        "alt_km": 755.4979762748299,
        "timestamp": "2025-12-02T08:59:32.999473+00:00",
        "meta_object_name": "FENGYUN 1C DEB",
        "meta_object_id": "1999-025CPN",
        "meta_epoch": "2025-11-24T23:55:40.651392",
        "meta_mean_motion": 14.22924304,
        "meta_eccentricity": 0.01509495,
        "meta_inclination": 98.2192,
        "meta_ra_of_asc_node": 231.3867,
        "meta_arg_of_pericenter": 299.2224,
        "meta_mean_anomaly": 59.3931,
        "meta_ephemeris_type": 0,
        "meta_classification_type": "U",
        "meta_norad_cat_id": 31985,
        "meta_element_set_no": 999,
        "meta_rev_at_epoch": 95358,
        "meta_bstar": 0.0005103033,
        "meta_mean_motion_dot": 1.248e-05,
        "meta_mean_motion_ddot": 0,
        "tle_line1": "1 31985U 99025CPN 25328.99699828  .00001248  00000+0  51030-3 0  9997",
        "tle_line2": "2 31985  98.2192 231.3867 0150949 299.2224  59.3931 14.22924304953588"
      },
      "geometry": {
        "type": "Point",
        "coordinates": [
          -117.16946811366539,
          -28.78032810529876
        ]
      }
    },
    {
      "type": "Feature",
      "properties": {
        "norad_id": 31987,
        "name": "FENGYUN 1C DEB",
        "group": "fengyun-1c-debris",
        "lat": 15.739697153793658,
        "lon": -53.24812939058564,
        "alt_km": 779.3447478367925,
        "timestamp": "2025-12-02T08:59:32.999483+00:00",
        "meta_object_name": "FENGYUN 1C DEB",
        "meta_object_id": "1999-025CPQ",
        "meta_epoch": "2025-11-30T04:01:33.280320",
        "meta_mean_motion": 14.44774124,
        "meta_eccentricity": 0.00509032,
        "meta_inclination": 99.0379,
        "meta_ra_of_asc_node": 306.9772,
        "meta_arg_of_pericenter": 195.3502,
        "meta_mean_anomaly": 228.5447,
        "meta_ephemeris_type": 0,
        "meta_classification_type": "U",
        "meta_norad_cat_id": 31987,
        "meta_element_set_no": 999,
        "meta_rev_at_epoch": 96188,
        "meta_bstar": 0.0011857855,
        "meta_mean_motion_dot": 4.135e-05,
        "meta_mean_motion_ddot": 0,
        "tle_line1": "1 31987U 99025CPQ 25334.16774630  .00004135  00000+0  11858-2 0  9991",
        "tle_line2": "2 31987  99.0379 306.9772 0050903 195.3502 228.5447 14.44774124961885"
      },
      "geometry": {
        "type": "Point",
        "coordinates": [
          -53.24812939058564,
          15.739697153793658
        ]
      }
    },
    {
      "type": "Feature",
      "properties": {
        "norad_id": 31989,
        "name": "FENGYUN 1C DEB",
        "group": "fengyun-1c-debris",
        "lat": 63.28122663939885,
        "lon": 18.749273320645276,
        "alt_km": 919.8165896224655,
        "timestamp": "2025-12-02T08:59:32.999493+00:00",
        "meta_object_name": "FENGYUN 1C DEB",
        "meta_object_id": "1999-025CPS",
        "meta_epoch": "2025-12-01T03:31:29.682048",
        "meta_mean_motion": 13.93560032,
        "meta_eccentricity": 0.01155015,
        "meta_inclination": 99.2147,
        "meta_ra_of_asc_node": 36.3397,
        "meta_arg_of_pericenter": 330.8082,
        "meta_mean_anomaly": 56.337,
        "meta_ephemeris_type": 0,
        "meta_classification_type": "U",
        "meta_norad_cat_id": 31989,
        "meta_element_set_no": 999,
        "meta_rev_at_epoch": 93556,
        "meta_bstar": 0.00052076403,
        "meta_mean_motion_dot": 6.76e-06,
        "meta_mean_motion_ddot": 0,
        "tle_line1": "1 31989U 99025CPS 25335.14687132  .00000676  00000+0  52076-3 0  9996",
        "tle_line2": "2 31989  99.2147  36.3397 0115501 330.8082  56.3370 13.93560032935566"
      },
      "geometry": {
        "type": "Point",
        "coordinates": [
          18.749273320645276,
          63.28122663939885
        ]
      }
    },
    {
      "type": "Feature",
      "properties": {
        "norad_id": 31990,
        "name": "FENGYUN 1C DEB",
        "group": "fengyun-1c-debris",
        "lat": 71.68817821725925,
        "lon": -29.61847800621744,
        "alt_km": 1177.6258382115393,
        "timestamp": "2025-12-02T08:59:32.999503+00:00",
        "meta_object_name": "FENGYUN 1C DEB",
        "meta_object_id": "1999-025CPT",
        "meta_epoch": "2025-12-01T08:11:26.284416",
        "meta_mean_motion": 13.57193977,
        "meta_eccentricity": 0.02597842,
        "meta_inclination": 99.1613,
        "meta_ra_of_asc_node": 358.6007,
        "meta_arg_of_pericenter": 213.7422,
        "meta_mean_anomaly": 215.9277,
        "meta_ephemeris_type": 0,
        "meta_classification_type": "U",
        "meta_norad_cat_id": 31990,
        "meta_element_set_no": 999,
        "meta_rev_at_epoch": 62617,
        "meta_bstar": 0.00032973615,
        "meta_mean_motion_dot": 2.52e-06,
        "meta_mean_motion_ddot": 0,
        "tle_line1": "1 31990U 99025CPT 25335.34127644  .00000252  00000+0  32974-3 0  9992",
        "tle_line2": "2 31990  99.1613 358.6007 0259784 213.7422 215.9277 13.57193977626175"
      },
      "geometry": {
        "type": "Point",
        "coordinates": [
          -29.61847800621744,
          71.68817821725925
        ]
      }
    }
  ]
}